*******************************************************************************
Ephemeris / WWW_USER Mon Mar 10 14:35:28 2025 Pasadena, USA      / Horizons    
*******************************************************************************
Target body name: (2018 KH3)                      {source: JPL#10}
Center body name: Earth (399)                     {source: DE441}
Center-site name: Mauna Kea
*******************************************************************************
Start time      : A.D. 2018-Aug-02 05:08:00.0000 UT      
Stop  time      : A.D. 2018-Aug-02 15:48:00.0000 UT      
Step-size       : 1 minutes
*******************************************************************************
Target pole/equ : undefined
Target radii    : undefined                                                    
Center geodetic : 204.5278, 19.8260847, 4.21024   {E-lon(deg),Lat(deg),Alt(km)}
Center cylindric: 204.5278, 6006.35451, 2151.0229 {E-lon(deg),Dxy(km),Dz(km)}
Center pole/equ : ITRF93                          {East-longitude positive}
Center radii    : 6378.137, 6378.137, 6356.752 km {Equator_a, b, pole_c}       
Target primary  : Sun
Vis. interferer : MOON (R_eq= 1737.400) km        {source: DE441}
Rel. light bend : Sun                             {source: DE441}
Rel. lght bnd GM: 1.3271E+11 km^3/s^2                                          
Small-body perts: Yes                             {source: SB441-N16}
Atmos refraction: NO (AIRLESS)
RA format       : HMS
Time format     : CAL 
Calendar mode   : Mixed Julian/Gregorian
RTS-only print  : NO       
EOP file        : eop.250307.p250603                                           
EOP coverage    : DATA-BASED 1962-JAN-20 TO 2025-MAR-07. PREDICTS-> 2025-JUN-02
Units conversion: 1 au= 149597870.700 km, c= 299792.458 km/s, 1 day= 86400.0 s 
Table cut-offs 1: Elevation (-90.0deg=NO ),Airmass (>38.000=NO), Daylight (YES)
Table cut-offs 2: Solar elongation (  0.0,180.0=NO ),Local Hour Angle( 0.0=NO )
Table cut-offs 3: RA/DEC angular rate (     0.0=NO )                           
*******************************************************************************
Initial IAU76/J2000 heliocentric ecliptic osculating elements (au, days, deg.):
  EPOCH=  2458288.5 ! 2018-Jun-19.00 (TDB)         Residual RMS= .22282        
   EC= .960925581819226    QR= 3.698978437965829   TP= 2457875.4618278281      
   OM= 293.0370088641419   W=  320.1514802298502   IN= 46.86534913190896       
  Equivalent ICRF heliocentric cartesian coordinates (au, au/d):
   X= 3.123713088662113E+00  Y=-4.022617727101489E+00  Z=-9.776572180429732E-02
  VX= 7.160289219203867E-03 VY=-1.601856640773144E-03 VZ= 7.695430476273978E-03
Asteroid physical parameters (km, seconds, rotational period in hours):        
   GM= n.a.                RAD= n.a.               ROTPER= n.a.                
   H= 13.69                G= .150                 B-V= n.a.                   
                           ALBEDO= n.a.            STYP= n.a.                  
*******************************************************************************
 Date__(UT)__HR:MN     R.A._________(ICRF)_________DEC
******************************************************
$$SOE
 2018-Aug-02 05:08 C   20 38 24.218024 +07 12 45.12119
 2018-Aug-02 05:09 C   20 38 24.191972 +07 12 45.21094
 2018-Aug-02 05:10 C   20 38 24.165918 +07 12 45.30069
 2018-Aug-02 05:11 C   20 38 24.139861 +07 12 45.39043
 2018-Aug-02 05:12 C   20 38 24.113802 +07 12 45.48017
 2018-Aug-02 05:13 C   20 38 24.087741 +07 12 45.56990
 2018-Aug-02 05:14 C   20 38 24.061677 +07 12 45.65963
 2018-Aug-02 05:15 C   20 38 24.035611 +07 12 45.74935
 2018-Aug-02 05:16 C   20 38 24.009543 +07 12 45.83908
 2018-Aug-02 05:17 C   20 38 23.983473 +07 12 45.92879
 2018-Aug-02 05:18 C   20 38 23.957400 +07 12 46.01851
 2018-Aug-02 05:19 C   20 38 23.931325 +07 12 46.10821
 2018-Aug-02 05:20 C   20 38 23.905248 +07 12 46.19792
 2018-Aug-02 05:21 C   20 38 23.879168 +07 12 46.28762
 2018-Aug-02 05:22 N   20 38 23.853087 +07 12 46.37732
 2018-Aug-02 05:23 N   20 38 23.827002 +07 12 46.46701
 2018-Aug-02 05:24 N   20 38 23.800916 +07 12 46.55670
 2018-Aug-02 05:25 N   20 38 23.774827 +07 12 46.64638
 2018-Aug-02 05:26 N   20 38 23.748737 +07 12 46.73606
 2018-Aug-02 05:27 N   20 38 23.722643 +07 12 46.82574
 2018-Aug-02 05:28 N   20 38 23.696548 +07 12 46.91541
 2018-Aug-02 05:29 N   20 38 23.670450 +07 12 47.00508
 2018-Aug-02 05:30 N   20 38 23.644351 +07 12 47.09474
 2018-Aug-02 05:31 N   20 38 23.618248 +07 12 47.18440
 2018-Aug-02 05:32 N   20 38 23.592144 +07 12 47.27405
 2018-Aug-02 05:33 N   20 38 23.566037 +07 12 47.36370
 2018-Aug-02 05:34 N   20 38 23.539928 +07 12 47.45335
 2018-Aug-02 05:35 N   20 38 23.513817 +07 12 47.54299
 2018-Aug-02 05:36 N   20 38 23.487704 +07 12 47.63262
 2018-Aug-02 05:37 N   20 38 23.461588 +07 12 47.72226
 2018-Aug-02 05:38 N   20 38 23.435471 +07 12 47.81188
 2018-Aug-02 05:39 N   20 38 23.409351 +07 12 47.90151
 2018-Aug-02 05:40 N   20 38 23.383228 +07 12 47.99113
 2018-Aug-02 05:41 N   20 38 23.357104 +07 12 48.08074
 2018-Aug-02 05:42 N   20 38 23.330977 +07 12 48.17035
 2018-Aug-02 05:43 N   20 38 23.304849 +07 12 48.25996
 2018-Aug-02 05:44 N   20 38 23.278718 +07 12 48.34956
 2018-Aug-02 05:45 N   20 38 23.252584 +07 12 48.43915
 2018-Aug-02 05:46 N   20 38 23.226449 +07 12 48.52874
 2018-Aug-02 05:47 N   20 38 23.200311 +07 12 48.61833
 2018-Aug-02 05:48 N   20 38 23.174171 +07 12 48.70791
 2018-Aug-02 05:49 N   20 38 23.148029 +07 12 48.79749
 2018-Aug-02 05:50 A   20 38 23.121885 +07 12 48.88706
 2018-Aug-02 05:51 A   20 38 23.095739 +07 12 48.97663
 2018-Aug-02 05:52 A   20 38 23.069590 +07 12 49.06619
 2018-Aug-02 05:53 A   20 38 23.043440 +07 12 49.15575
 2018-Aug-02 05:54 A   20 38 23.017287 +07 12 49.24531
 2018-Aug-02 05:55 A   20 38 22.991132 +07 12 49.33486
 2018-Aug-02 05:56 A   20 38 22.964975 +07 12 49.42440
 2018-Aug-02 05:57 A   20 38 22.938816 +07 12 49.51394
 2018-Aug-02 05:58 A   20 38 22.912654 +07 12 49.60348
 2018-Aug-02 05:59 A   20 38 22.886491 +07 12 49.69301
 2018-Aug-02 06:00 A   20 38 22.860325 +07 12 49.78253
 2018-Aug-02 06:01 A   20 38 22.834157 +07 12 49.87205
 2018-Aug-02 06:02 A   20 38 22.807987 +07 12 49.96157
 2018-Aug-02 06:03 A   20 38 22.781815 +07 12 50.05108
 2018-Aug-02 06:04 A   20 38 22.755641 +07 12 50.14058
 2018-Aug-02 06:05 A   20 38 22.729465 +07 12 50.23008
 2018-Aug-02 06:06 A   20 38 22.703286 +07 12 50.31958
 2018-Aug-02 06:07 A   20 38 22.677106 +07 12 50.40907
 2018-Aug-02 06:08 A   20 38 22.650923 +07 12 50.49855
 2018-Aug-02 06:09 A   20 38 22.624738 +07 12 50.58804
 2018-Aug-02 06:10 A   20 38 22.598552 +07 12 50.67751
 2018-Aug-02 06:11 A   20 38 22.572363 +07 12 50.76698
 2018-Aug-02 06:12 A   20 38 22.546172 +07 12 50.85645
 2018-Aug-02 06:13 A   20 38 22.519979 +07 12 50.94591
 2018-Aug-02 06:14 A   20 38 22.493784 +07 12 51.03536
 2018-Aug-02 06:15 A   20 38 22.467587 +07 12 51.12481
 2018-Aug-02 06:16 A   20 38 22.441387 +07 12 51.21426
 2018-Aug-02 06:17 A   20 38 22.415186 +07 12 51.30370
 2018-Aug-02 06:18     20 38 22.388983 +07 12 51.39313
 2018-Aug-02 06:19     20 38 22.362778 +07 12 51.48256
 2018-Aug-02 06:20     20 38 22.336570 +07 12 51.57199
 2018-Aug-02 06:21     20 38 22.310361 +07 12 51.66140
 2018-Aug-02 06:22     20 38 22.284149 +07 12 51.75082
 2018-Aug-02 06:23     20 38 22.257936 +07 12 51.84023
 2018-Aug-02 06:24     20 38 22.231721 +07 12 51.92963
 2018-Aug-02 06:25     20 38 22.205503 +07 12 52.01903
 2018-Aug-02 06:26     20 38 22.179284 +07 12 52.10842
 2018-Aug-02 06:27     20 38 22.153062 +07 12 52.19781
 2018-Aug-02 06:28     20 38 22.126839 +07 12 52.28719
 2018-Aug-02 06:29     20 38 22.100613 +07 12 52.37657
 2018-Aug-02 06:30     20 38 22.074386 +07 12 52.46594
 2018-Aug-02 06:31     20 38 22.048157 +07 12 52.55530
 2018-Aug-02 06:32     20 38 22.021925 +07 12 52.64466
 2018-Aug-02 06:33     20 38 21.995692 +07 12 52.73402
 2018-Aug-02 06:34     20 38 21.969457 +07 12 52.82337
 2018-Aug-02 06:35     20 38 21.943219 +07 12 52.91271
 2018-Aug-02 06:36     20 38 21.916980 +07 12 53.00205
 2018-Aug-02 06:37     20 38 21.890739 +07 12 53.09138
 2018-Aug-02 06:38     20 38 21.864496 +07 12 53.18071
 2018-Aug-02 06:39     20 38 21.838251 +07 12 53.27003
 2018-Aug-02 06:40     20 38 21.812004 +07 12 53.35935
 2018-Aug-02 06:41     20 38 21.785755 +07 12 53.44866
 2018-Aug-02 06:42     20 38 21.759505 +07 12 53.53797
 2018-Aug-02 06:43     20 38 21.733252 +07 12 53.62727
 2018-Aug-02 06:44     20 38 21.706998 +07 12 53.71656
 2018-Aug-02 06:45     20 38 21.680741 +07 12 53.80585
 2018-Aug-02 06:46     20 38 21.654483 +07 12 53.89513
 2018-Aug-02 06:47     20 38 21.628223 +07 12 53.98441
 2018-Aug-02 06:48     20 38 21.601961 +07 12 54.07368
 2018-Aug-02 06:49     20 38 21.575697 +07 12 54.16294
 2018-Aug-02 06:50     20 38 21.549431 +07 12 54.25220
 2018-Aug-02 06:51     20 38 21.523164 +07 12 54.34146
 2018-Aug-02 06:52     20 38 21.496894 +07 12 54.43071
 2018-Aug-02 06:53     20 38 21.470623 +07 12 54.51995
 2018-Aug-02 06:54     20 38 21.444350 +07 12 54.60919
 2018-Aug-02 06:55     20 38 21.418075 +07 12 54.69842
 2018-Aug-02 06:56     20 38 21.391798 +07 12 54.78764
 2018-Aug-02 06:57     20 38 21.365520 +07 12 54.87686
 2018-Aug-02 06:58     20 38 21.339239 +07 12 54.96608
 2018-Aug-02 06:59     20 38 21.312957 +07 12 55.05528
 2018-Aug-02 07:00     20 38 21.286673 +07 12 55.14449
 2018-Aug-02 07:01     20 38 21.260388 +07 12 55.23368
 2018-Aug-02 07:02     20 38 21.234100 +07 12 55.32287
 2018-Aug-02 07:03     20 38 21.207811 +07 12 55.41206
 2018-Aug-02 07:04     20 38 21.181520 +07 12 55.50124
 2018-Aug-02 07:05     20 38 21.155227 +07 12 55.59041
 2018-Aug-02 07:06     20 38 21.128932 +07 12 55.67957
 2018-Aug-02 07:07     20 38 21.102636 +07 12 55.76874
 2018-Aug-02 07:08     20 38 21.076338 +07 12 55.85789
 2018-Aug-02 07:09     20 38 21.050038 +07 12 55.94704
 2018-Aug-02 07:10     20 38 21.023737 +07 12 56.03618
